ATLAS CENTAUR R/B       
1 06155U 72065B   26022.88124616  .00002058  00000+0  28422-3 0  9990
2 06155  34.9998 214.1787 0034088 343.4437  16.5149 14.77536575834485
SL-8 R/B                
1 08459U 75112B   26022.31528342  .00000534  00000+0  18425-3 0  9996
2 08459  74.0609 104.2254 0016160 211.0780 148.9420 14.38176836625205
SL-3 R/B                
1 10114U 77057B   26022.92300672  .00013697  00000+0  30101-3 0  9997
2 10114  97.5713 192.8958 0008578  88.7542 271.4688 15.44098880661269
SEASAT 1                
1 10967U 78064A   26022.91100475  .00000699  00000+0  23393-3 0  9993
2 10967 108.0168  29.4250 0001227 284.3831  75.7178 14.46114247499890
SL-14 R/B               
1 11267U 79011B   26022.77071403  .00001270  00000+0  12309-3 0  9993
2 11267  82.5261 140.1319 0015378 206.1588 153.8857 14.91838322521934
SL-8 R/B                
1 11574U 79089B   26022.69041719  .00000641  00000+0  20191-3 0  9996
2 11574  74.0681 176.1855 0015826 356.0692   4.0338 14.42316306429476
SL-14 R/B               
1 11672U 80005B   26022.88783373  .00001227  00000+0  12187-3 0  9992
2 11672  82.5158 350.6689 0014710 321.3339  38.6826 14.90856306469668
SL-8 R/B                
1 12139U 81003B   26022.81440709  .00027835  00000+0  73810-3 0  9999
2 12139  82.9397 332.3869 0268733 339.0355  20.0014 15.08959407307754
SL-3 R/B                
1 12465U 81046B   26022.88642618  .00013326  00000+0  32401-3 0  9999
2 12465  81.2344 344.6750 0019356 172.9978 187.1539 15.40646596431376
SL-3 R/B                
1 12904U 81103B   26022.92168709  .00006505  00000+0  29326-3 0  9993
2 12904  81.1578 267.1087 0014368  79.1011 281.1836 15.20792906966270
SL-3 R/B                
1 13068U 82013B   26022.94970596  .00005403  00000+0  23754-3 0  9998
2 13068  81.1721 214.3568 0022365 336.4510  23.5695 15.21488723397391
SL-3 R/B                
1 13154U 82039B   26022.93208765  .00003802  00000+0  23142-3 0  9995
2 13154  81.1653 268.6917 0030029 114.1715 246.2655 15.09807748374736
