CCSDS_OMM_VERS = 2.0
CREATION_DATE  = 
ORIGINATOR     = 

OBJECT_NAME    = ATLAS CENTAUR R/B
OBJECT_ID      = 1972-065B
CENTER_NAME    = EARTH
REF_FRAME      = TEME
TIME_SYSTEM    = UTC
MEAN_ELEMENT_THEORY = SGP/SGP4

EPOCH          = 2026-01-22T21:08:59.668224
MEAN_MOTION    = 14.77536575
ECCENTRICITY   = .00340888
INCLINATION    = 34.9998
RA_OF_ASC_NODE = 214.1787
ARG_OF_PERICENTER = 343.4437
MEAN_ANOMALY   = 16.5149

EPHEMERIS_TYPE = 0
CLASSIFICATION_TYPE = U
NORAD_CAT_ID   = 6155
ELEMENT_SET_NO = 999
REV_AT_EPOCH   = 83448
BSTAR          = .28421558E-3
MEAN_MOTION_DOT = .2058E-4
MEAN_MOTION_DDOT = 0

CCSDS_OMM_VERS = 2.0
CREATION_DATE  = 
ORIGINATOR     = 

OBJECT_NAME    = SL-8 R/B
OBJECT_ID      = 1975-112B
CENTER_NAME    = EARTH
REF_FRAME      = TEME
TIME_SYSTEM    = UTC
MEAN_ELEMENT_THEORY = SGP/SGP4

EPOCH          = 2026-01-22T07:34:00.487488
MEAN_MOTION    = 14.38176836
ECCENTRICITY   = .00161607
INCLINATION    = 74.0609
RA_OF_ASC_NODE = 104.2254
ARG_OF_PERICENTER = 211.0780
MEAN_ANOMALY   = 148.9420

EPHEMERIS_TYPE = 0
CLASSIFICATION_TYPE = U
NORAD_CAT_ID   = 8459
ELEMENT_SET_NO = 999
REV_AT_EPOCH   = 62520
BSTAR          = .18425375E-3
MEAN_MOTION_DOT = .534E-5
MEAN_MOTION_DDOT = 0

CCSDS_OMM_VERS = 2.0
CREATION_DATE  = 
ORIGINATOR     = 

OBJECT_NAME    = SL-3 R/B
OBJECT_ID      = 1977-057B
CENTER_NAME    = EARTH
REF_FRAME      = TEME
TIME_SYSTEM    = UTC
MEAN_ELEMENT_THEORY = SGP/SGP4

EPOCH          = 2026-01-22T22:09:07.780608
MEAN_MOTION    = 15.44098880
ECCENTRICITY   = .00085785
INCLINATION    = 97.5713
RA_OF_ASC_NODE = 192.8958
ARG_OF_PERICENTER = 88.7542
MEAN_ANOMALY   = 271.4688

EPHEMERIS_TYPE = 0
CLASSIFICATION_TYPE = U
NORAD_CAT_ID   = 10114
ELEMENT_SET_NO = 999
REV_AT_EPOCH   = 66126
BSTAR          = .30101387E-3
MEAN_MOTION_DOT = .13697E-3
MEAN_MOTION_DDOT = 0

CCSDS_OMM_VERS = 2.0
CREATION_DATE  = 
ORIGINATOR     = 

OBJECT_NAME    = SEASAT 1
OBJECT_ID      = 1978-064A
CENTER_NAME    = EARTH
REF_FRAME      = TEME
TIME_SYSTEM    = UTC
MEAN_ELEMENT_THEORY = SGP/SGP4

EPOCH          = 2026-01-22T21:51:50.810400
MEAN_MOTION    = 14.46114247
ECCENTRICITY   = .00012277
INCLINATION    = 108.0168
RA_OF_ASC_NODE = 29.4250
ARG_OF_PERICENTER = 284.3831
MEAN_ANOMALY   = 75.7178

EPHEMERIS_TYPE = 0
CLASSIFICATION_TYPE = U
NORAD_CAT_ID   = 10967
ELEMENT_SET_NO = 999
REV_AT_EPOCH   = 49989
BSTAR          = .23392685E-3
MEAN_MOTION_DOT = .699E-5
MEAN_MOTION_DDOT = 0

CCSDS_OMM_VERS = 2.0
CREATION_DATE  = 
ORIGINATOR     = 

OBJECT_NAME    = SL-14 R/B
OBJECT_ID      = 1979-011B
CENTER_NAME    = EARTH
REF_FRAME      = TEME
TIME_SYSTEM    = UTC
MEAN_ELEMENT_THEORY = SGP/SGP4

EPOCH          = 2026-01-22T18:29:49.692192
MEAN_MOTION    = 14.91838322
ECCENTRICITY   = .00153784
INCLINATION    = 82.5261
RA_OF_ASC_NODE = 140.1319
ARG_OF_PERICENTER = 206.1588
MEAN_ANOMALY   = 153.8857

EPHEMERIS_TYPE = 0
CLASSIFICATION_TYPE = U
NORAD_CAT_ID   = 11267
ELEMENT_SET_NO = 999
REV_AT_EPOCH   = 52193
BSTAR          = .12308883E-3
MEAN_MOTION_DOT = .127E-4
MEAN_MOTION_DDOT = 0

CCSDS_OMM_VERS = 2.0
CREATION_DATE  = 
ORIGINATOR     = 

OBJECT_NAME    = SL-8 R/B
OBJECT_ID      = 1979-089B
CENTER_NAME    = EARTH
REF_FRAME      = TEME
TIME_SYSTEM    = UTC
MEAN_ELEMENT_THEORY = SGP/SGP4

EPOCH          = 2026-01-22T16:34:12.045216
MEAN_MOTION    = 14.42316306
ECCENTRICITY   = .00158267
INCLINATION    = 74.0681
RA_OF_ASC_NODE = 176.1855
ARG_OF_PERICENTER = 356.0692
MEAN_ANOMALY   = 4.0338

EPHEMERIS_TYPE = 0
CLASSIFICATION_TYPE = U
NORAD_CAT_ID   = 11574
ELEMENT_SET_NO = 999
REV_AT_EPOCH   = 42947
BSTAR          = .20191239E-3
MEAN_MOTION_DOT = .641E-5
MEAN_MOTION_DDOT = 0

CCSDS_OMM_VERS = 2.0
CREATION_DATE  = 
ORIGINATOR     = 

OBJECT_NAME    = SL-14 R/B
OBJECT_ID      = 1980-005B
CENTER_NAME    = EARTH
REF_FRAME      = TEME
TIME_SYSTEM    = UTC
MEAN_ELEMENT_THEORY = SGP/SGP4

EPOCH          = 2026-01-22T21:18:28.834272
MEAN_MOTION    = 14.90856306
ECCENTRICITY   = .00147108
INCLINATION    = 82.5158
RA_OF_ASC_NODE = 350.6689
ARG_OF_PERICENTER = 321.3339
MEAN_ANOMALY   = 38.6826

EPHEMERIS_TYPE = 0
CLASSIFICATION_TYPE = U
NORAD_CAT_ID   = 11672
ELEMENT_SET_NO = 999
REV_AT_EPOCH   = 46966
BSTAR          = .12187077E-3
MEAN_MOTION_DOT = .1227E-4
MEAN_MOTION_DDOT = 0

CCSDS_OMM_VERS = 2.0
CREATION_DATE  = 
ORIGINATOR     = 

OBJECT_NAME    = SL-8 R/B
OBJECT_ID      = 1981-003B
CENTER_NAME    = EARTH
REF_FRAME      = TEME
TIME_SYSTEM    = UTC
MEAN_ELEMENT_THEORY = SGP/SGP4

EPOCH          = 2026-01-22T19:32:44.772576
MEAN_MOTION    = 15.08959407
ECCENTRICITY   = .02687336
INCLINATION    = 82.9397
RA_OF_ASC_NODE = 332.3869
ARG_OF_PERICENTER = 339.0355
MEAN_ANOMALY   = 20.0014

EPHEMERIS_TYPE = 0
CLASSIFICATION_TYPE = U
NORAD_CAT_ID   = 12139
ELEMENT_SET_NO = 999
REV_AT_EPOCH   = 30775
BSTAR          = .73809771E-3
MEAN_MOTION_DOT = .27835E-3
MEAN_MOTION_DDOT = 0

CCSDS_OMM_VERS = 2.0
CREATION_DATE  = 
ORIGINATOR     = 

OBJECT_NAME    = SL-3 R/B
OBJECT_ID      = 1981-046B
CENTER_NAME    = EARTH
REF_FRAME      = TEME
TIME_SYSTEM    = UTC
MEAN_ELEMENT_THEORY = SGP/SGP4

EPOCH          = 2026-01-22T21:16:27.221952
MEAN_MOTION    = 15.40646596
ECCENTRICITY   = .00193561
INCLINATION    = 81.2344
RA_OF_ASC_NODE = 344.6750
ARG_OF_PERICENTER = 172.9978
MEAN_ANOMALY   = 187.1539

EPHEMERIS_TYPE = 0
CLASSIFICATION_TYPE = U
NORAD_CAT_ID   = 12465
ELEMENT_SET_NO = 999
REV_AT_EPOCH   = 43137
BSTAR          = .32401083E-3
MEAN_MOTION_DOT = .13326E-3
MEAN_MOTION_DDOT = 0

CCSDS_OMM_VERS = 2.0
CREATION_DATE  = 
ORIGINATOR     = 

OBJECT_NAME    = SL-3 R/B
OBJECT_ID      = 1981-103B
CENTER_NAME    = EARTH
REF_FRAME      = TEME
TIME_SYSTEM    = UTC
MEAN_ELEMENT_THEORY = SGP/SGP4

EPOCH          = 2026-01-22T22:07:13.764576
MEAN_MOTION    = 15.20792906
ECCENTRICITY   = .00143689
INCLINATION    = 81.1578
RA_OF_ASC_NODE = 267.1087
ARG_OF_PERICENTER = 79.1011
MEAN_ANOMALY   = 281.1836

EPHEMERIS_TYPE = 0
CLASSIFICATION_TYPE = U
NORAD_CAT_ID   = 12904
ELEMENT_SET_NO = 999
REV_AT_EPOCH   = 96627
BSTAR          = .29326459E-3
MEAN_MOTION_DOT = .6505E-4
MEAN_MOTION_DDOT = 0

CCSDS_OMM_VERS = 2.0
CREATION_DATE  = 
ORIGINATOR     = 

OBJECT_NAME    = SL-3 R/B
OBJECT_ID      = 1982-013B
CENTER_NAME    = EARTH
REF_FRAME      = TEME
TIME_SYSTEM    = UTC
MEAN_ELEMENT_THEORY = SGP/SGP4

EPOCH          = 2026-01-22T22:47:34.594944
MEAN_MOTION    = 15.21488723
ECCENTRICITY   = .00223653
INCLINATION    = 81.1721
RA_OF_ASC_NODE = 214.3568
ARG_OF_PERICENTER = 336.4510
MEAN_ANOMALY   = 23.5695

EPHEMERIS_TYPE = 0
CLASSIFICATION_TYPE = U
NORAD_CAT_ID   = 13068
ELEMENT_SET_NO = 999
REV_AT_EPOCH   = 39739
BSTAR          = .2375433E-3
MEAN_MOTION_DOT = .5403E-4
MEAN_MOTION_DDOT = 0

CCSDS_OMM_VERS = 2.0
CREATION_DATE  = 
ORIGINATOR     = 

OBJECT_NAME    = SL-3 R/B
OBJECT_ID      = 1982-039B
CENTER_NAME    = EARTH
REF_FRAME      = TEME
TIME_SYSTEM    = UTC
MEAN_ELEMENT_THEORY = SGP/SGP4

EPOCH          = 2026-01-22T22:22:12.372960
MEAN_MOTION    = 15.09807748
ECCENTRICITY   = .00300296
INCLINATION    = 81.1653
RA_OF_ASC_NODE = 268.6917
ARG_OF_PERICENTER = 114.1715
MEAN_ANOMALY   = 246.2655

EPHEMERIS_TYPE = 0
CLASSIFICATION_TYPE = U
NORAD_CAT_ID   = 13154
ELEMENT_SET_NO = 999
REV_AT_EPOCH   = 37473
BSTAR          = .23141762E-3
MEAN_MOTION_DOT = .3802E-4
MEAN_MOTION_DDOT = 0

